DELTA 2 R/B(1),1 20453U 90008B   26029.42231362  .00079793  00000+0  10902-2 0  9991,2 20453  35.6055  71.4897 0099241 254.2395 104.7376 15.50556117920028,33.14300230857783,-167.32056320759597,479906.60777878127
COSMOS 2058,1 20465U 90010A   26030.10979200  .00005287  00000+0  31474-3 0  9999,2 20465  82.4649  85.4354 0011900 104.3003 255.9549 15.10967843936419,48.436874652450264,-40.53976337782855,533623.5244035366
SL-14 R/B,1 20466U 90010B   26030.10703369  .00000719  00000+0  84099-4 0  9998,2 20466  82.5042 303.6282 0021318  68.6108 291.7379 14.83532053922767,67.85421126983248,167.44264475762589,619119.0434033033
SL-14 R/B,1 20511U 90018B   26030.08759857  .00000592  00000+0  71374-4 0  9998,2 20511  82.5192 259.1789 0015449 215.0575 144.9623 14.82105048916869,-32.240973585681225,146.45763596431607,624050.1787205139
HST,1 20580U 90037B   26029.98040843  .00010901  00000+0  36963-3 0  9999,2 20580  28.4680 303.9429 0001931  48.5567 311.5194 15.28850693767386,12.780034773012947,158.96520598248412,476906.1452572893
SL-16 R/B,1 20625U 90046B   26030.09942440 -.00000205  00000+0 -81050-4 0  9993,2 20625  70.9995  18.9574 0014301 353.0186   7.0735 14.15005789842933,56.55021549066281,112.32666954701914,847547.1373057733
COSMOS 2084,1 20663U 90055A   26029.93256171  .00004225  00000+0  30537-3 0  9992,2 20663  62.7907 107.7410 0023362 182.2184 177.8816 15.05395426930484,4.855665927103781,171.32262354031116,567784.9833391932
SL-6 R/B(2),1 20666U 90055D   26030.12892350  .00003859  00000+0  29596-3 0  9998,2 20666  62.7839  24.9603 0019116 335.3497  24.6686 15.03373793932392,16.813343397473446,95.61562314836242,548083.2095497722
SL-8 R/B,1 20775U 90078B   26030.12124156  .00023300  00000+0  69295-3 0  9999,2 20775  82.9051 285.9575 0367714 143.1921 219.5168 14.87765612803569,38.186210533689525,-5.856672409619757,661582.761697908
SL-8 R/B,1 21088U 91006B   26029.99245232  .00000013  00000+0 -28728-5 0  9996,2 21088  82.9420 198.8187 0023200 141.4408 333.4463 13.77491953758743,-62.46184517166412,-112.29021336556649,1012436.5346839526
OKEAN-3,1 21397U 91039A   26030.04110043  .00005132  00000+0  36375-3 0  9995,2 21397  82.5173  14.2745 0016006 100.9823 259.3205 15.04494135859227,44.8707704999672,-110.70118677828381,550811.3608791049
COSMOS 2151,1 21422U 91042A   26030.12655402  .00003739  00000+0  29862-3 0  9994,2 21422  82.4982 120.8709 0012442 183.5043 176.6096 14.99947836857410,26.10465165109912,-172.8694391928452,578239.6348656449
