CCSDS_OMM_VERS = 2.0
CREATION_DATE  = 
ORIGINATOR     = 

OBJECT_NAME    = DELTA 2 R/B(1)
OBJECT_ID      = 1990-008B
CENTER_NAME    = EARTH
REF_FRAME      = TEME
TIME_SYSTEM    = UTC
MEAN_ELEMENT_THEORY = SGP/SGP4

EPOCH          = 2026-01-29T10:08:07.896768
MEAN_MOTION    = 15.50556117
ECCENTRICITY   = .0099241
INCLINATION    = 35.6055
RA_OF_ASC_NODE = 71.4897
ARG_OF_PERICENTER = 254.2395
MEAN_ANOMALY   = 104.7376

EPHEMERIS_TYPE = 0
CLASSIFICATION_TYPE = U
NORAD_CAT_ID   = 20453
ELEMENT_SET_NO = 999
REV_AT_EPOCH   = 92002
BSTAR          = .10902E-2
MEAN_MOTION_DOT = .79793E-3
MEAN_MOTION_DDOT = 0

CCSDS_OMM_VERS = 2.0
CREATION_DATE  = 
ORIGINATOR     = 

OBJECT_NAME    = COSMOS 2058
OBJECT_ID      = 1990-010A
CENTER_NAME    = EARTH
REF_FRAME      = TEME
TIME_SYSTEM    = UTC
MEAN_ELEMENT_THEORY = SGP/SGP4

EPOCH          = 2026-01-30T02:38:06.028800
MEAN_MOTION    = 15.10967843
ECCENTRICITY   = .00119
INCLINATION    = 82.4649
RA_OF_ASC_NODE = 85.4354
ARG_OF_PERICENTER = 104.3003
MEAN_ANOMALY   = 255.9549

EPHEMERIS_TYPE = 0
CLASSIFICATION_TYPE = U
NORAD_CAT_ID   = 20465
ELEMENT_SET_NO = 999
REV_AT_EPOCH   = 93641
BSTAR          = .31474E-3
MEAN_MOTION_DOT = .5287E-4
MEAN_MOTION_DDOT = 0

CCSDS_OMM_VERS = 2.0
CREATION_DATE  = 
ORIGINATOR     = 

OBJECT_NAME    = SL-14 R/B
OBJECT_ID      = 1990-010B
CENTER_NAME    = EARTH
REF_FRAME      = TEME
TIME_SYSTEM    = UTC
MEAN_ELEMENT_THEORY = SGP/SGP4

EPOCH          = 2026-01-30T02:34:07.710816
MEAN_MOTION    = 14.83532053
ECCENTRICITY   = .0021318
INCLINATION    = 82.5042
RA_OF_ASC_NODE = 303.6282
ARG_OF_PERICENTER = 68.6108
MEAN_ANOMALY   = 291.7379

EPHEMERIS_TYPE = 0
CLASSIFICATION_TYPE = U
NORAD_CAT_ID   = 20466
ELEMENT_SET_NO = 999
REV_AT_EPOCH   = 92276
BSTAR          = .84099E-4
MEAN_MOTION_DOT = .719E-5
MEAN_MOTION_DDOT = 0

CCSDS_OMM_VERS = 2.0
CREATION_DATE  = 
ORIGINATOR     = 

OBJECT_NAME    = SL-14 R/B
OBJECT_ID      = 1990-018B
CENTER_NAME    = EARTH
REF_FRAME      = TEME
TIME_SYSTEM    = UTC
MEAN_ELEMENT_THEORY = SGP/SGP4

EPOCH          = 2026-01-30T02:06:08.516448
MEAN_MOTION    = 14.82105048
ECCENTRICITY   = .0015449
INCLINATION    = 82.5192
RA_OF_ASC_NODE = 259.1789
ARG_OF_PERICENTER = 215.0575
MEAN_ANOMALY   = 144.9623

EPHEMERIS_TYPE = 0
CLASSIFICATION_TYPE = U
NORAD_CAT_ID   = 20511
ELEMENT_SET_NO = 999
REV_AT_EPOCH   = 91686
BSTAR          = .71374E-4
MEAN_MOTION_DOT = .592E-5
MEAN_MOTION_DDOT = 0

CCSDS_OMM_VERS = 2.0
CREATION_DATE  = 
ORIGINATOR     = 

OBJECT_NAME    = HST
OBJECT_ID      = 1990-037B
CENTER_NAME    = EARTH
REF_FRAME      = TEME
TIME_SYSTEM    = UTC
MEAN_ELEMENT_THEORY = SGP/SGP4

EPOCH          = 2026-01-29T23:31:47.288352
MEAN_MOTION    = 15.28850693
ECCENTRICITY   = .0001931
INCLINATION    = 28.4680
RA_OF_ASC_NODE = 303.9429
ARG_OF_PERICENTER = 48.5567
MEAN_ANOMALY   = 311.5194

EPHEMERIS_TYPE = 0
CLASSIFICATION_TYPE = U
NORAD_CAT_ID   = 20580
ELEMENT_SET_NO = 999
REV_AT_EPOCH   = 76738
BSTAR          = .36963E-3
MEAN_MOTION_DOT = .10901E-3
MEAN_MOTION_DDOT = 0

CCSDS_OMM_VERS = 2.0
CREATION_DATE  = 
ORIGINATOR     = 

OBJECT_NAME    = SL-16 R/B
OBJECT_ID      = 1990-046B
CENTER_NAME    = EARTH
REF_FRAME      = TEME
TIME_SYSTEM    = UTC
MEAN_ELEMENT_THEORY = SGP/SGP4

EPOCH          = 2026-01-30T02:23:10.268160
MEAN_MOTION    = 14.15005789
ECCENTRICITY   = .0014301
INCLINATION    = 70.9995
RA_OF_ASC_NODE = 18.9574
ARG_OF_PERICENTER = 353.0186
MEAN_ANOMALY   = 7.0735

EPHEMERIS_TYPE = 0
CLASSIFICATION_TYPE = U
NORAD_CAT_ID   = 20625
ELEMENT_SET_NO = 999
REV_AT_EPOCH   = 84293
BSTAR          = -.8105E-4
MEAN_MOTION_DOT = -.205E-5
MEAN_MOTION_DDOT = 0

CCSDS_OMM_VERS = 2.0
CREATION_DATE  = 
ORIGINATOR     = 

OBJECT_NAME    = COSMOS 2084
OBJECT_ID      = 1990-055A
CENTER_NAME    = EARTH
REF_FRAME      = TEME
TIME_SYSTEM    = UTC
MEAN_ELEMENT_THEORY = SGP/SGP4

EPOCH          = 2026-01-29T22:22:53.331744
MEAN_MOTION    = 15.05395426
ECCENTRICITY   = .0023362
INCLINATION    = 62.7907
RA_OF_ASC_NODE = 107.7410
ARG_OF_PERICENTER = 182.2184
MEAN_ANOMALY   = 177.8816

EPHEMERIS_TYPE = 0
CLASSIFICATION_TYPE = U
NORAD_CAT_ID   = 20663
ELEMENT_SET_NO = 999
REV_AT_EPOCH   = 93048
BSTAR          = .30537E-3
MEAN_MOTION_DOT = .4225E-4
MEAN_MOTION_DDOT = 0

CCSDS_OMM_VERS = 2.0
CREATION_DATE  = 
ORIGINATOR     = 

OBJECT_NAME    = SL-6 R/B(2)
OBJECT_ID      = 1990-055D
CENTER_NAME    = EARTH
REF_FRAME      = TEME
TIME_SYSTEM    = UTC
MEAN_ELEMENT_THEORY = SGP/SGP4

EPOCH          = 2026-01-30T03:05:38.990400
MEAN_MOTION    = 15.03373793
ECCENTRICITY   = .0019116
INCLINATION    = 62.7839
RA_OF_ASC_NODE = 24.9603
ARG_OF_PERICENTER = 335.3497
MEAN_ANOMALY   = 24.6686

EPHEMERIS_TYPE = 0
CLASSIFICATION_TYPE = U
NORAD_CAT_ID   = 20666
ELEMENT_SET_NO = 999
REV_AT_EPOCH   = 93239
BSTAR          = .29596E-3
MEAN_MOTION_DOT = .3859E-4
MEAN_MOTION_DDOT = 0

CCSDS_OMM_VERS = 2.0
CREATION_DATE  = 
ORIGINATOR     = 

OBJECT_NAME    = SL-8 R/B
OBJECT_ID      = 1990-078B
CENTER_NAME    = EARTH
REF_FRAME      = TEME
TIME_SYSTEM    = UTC
MEAN_ELEMENT_THEORY = SGP/SGP4

EPOCH          = 2026-01-30T02:54:35.270784
MEAN_MOTION    = 14.87765612
ECCENTRICITY   = .0367714
INCLINATION    = 82.9051
RA_OF_ASC_NODE = 285.9575
ARG_OF_PERICENTER = 143.1921
MEAN_ANOMALY   = 219.5168

EPHEMERIS_TYPE = 0
CLASSIFICATION_TYPE = U
NORAD_CAT_ID   = 20775
ELEMENT_SET_NO = 999
REV_AT_EPOCH   = 80356
BSTAR          = .69295E-3
MEAN_MOTION_DOT = .233E-3
MEAN_MOTION_DDOT = 0

CCSDS_OMM_VERS = 2.0
CREATION_DATE  = 
ORIGINATOR     = 

OBJECT_NAME    = SL-8 R/B
OBJECT_ID      = 1991-006B
CENTER_NAME    = EARTH
REF_FRAME      = TEME
TIME_SYSTEM    = UTC
MEAN_ELEMENT_THEORY = SGP/SGP4

EPOCH          = 2026-01-29T23:49:07.880448
MEAN_MOTION    = 13.77491953
ECCENTRICITY   = .00232
INCLINATION    = 82.9420
RA_OF_ASC_NODE = 198.8187
ARG_OF_PERICENTER = 141.4408
MEAN_ANOMALY   = 333.4463

EPHEMERIS_TYPE = 0
CLASSIFICATION_TYPE = U
NORAD_CAT_ID   = 21088
ELEMENT_SET_NO = 999
REV_AT_EPOCH   = 75874
BSTAR          = -.28728E-5
MEAN_MOTION_DOT = .13E-6
MEAN_MOTION_DDOT = 0

CCSDS_OMM_VERS = 2.0
CREATION_DATE  = 
ORIGINATOR     = 

OBJECT_NAME    = OKEAN-3
OBJECT_ID      = 1991-039A
CENTER_NAME    = EARTH
REF_FRAME      = TEME
TIME_SYSTEM    = UTC
MEAN_ELEMENT_THEORY = SGP/SGP4

EPOCH          = 2026-01-30T00:59:11.077152
MEAN_MOTION    = 15.04494135
ECCENTRICITY   = .0016006
INCLINATION    = 82.5173
RA_OF_ASC_NODE = 14.2745
ARG_OF_PERICENTER = 100.9823
MEAN_ANOMALY   = 259.3205

EPHEMERIS_TYPE = 0
CLASSIFICATION_TYPE = U
NORAD_CAT_ID   = 21397
ELEMENT_SET_NO = 999
REV_AT_EPOCH   = 85922
BSTAR          = .36375E-3
MEAN_MOTION_DOT = .5132E-4
MEAN_MOTION_DDOT = 0

CCSDS_OMM_VERS = 2.0
CREATION_DATE  = 
ORIGINATOR     = 

OBJECT_NAME    = COSMOS 2151
OBJECT_ID      = 1991-042A
CENTER_NAME    = EARTH
REF_FRAME      = TEME
TIME_SYSTEM    = UTC
MEAN_ELEMENT_THEORY = SGP/SGP4

EPOCH          = 2026-01-30T03:02:14.267328
MEAN_MOTION    = 14.99947836
ECCENTRICITY   = .0012442
INCLINATION    = 82.4982
RA_OF_ASC_NODE = 120.8709
ARG_OF_PERICENTER = 183.5043
MEAN_ANOMALY   = 176.6096

EPHEMERIS_TYPE = 0
CLASSIFICATION_TYPE = U
NORAD_CAT_ID   = 21422
ELEMENT_SET_NO = 999
REV_AT_EPOCH   = 85741
BSTAR          = .29862E-3
MEAN_MOTION_DOT = .3739E-4
MEAN_MOTION_DDOT = 0

